*******************************************************************************
Ephemeris / WWW_USER Mon Mar 24 11:25:34 2025 Pasadena, USA      / Horizons    
*******************************************************************************
Target body name: (2017 UX51)                     {source: JPL#22}
Center body name: Earth (399)                     {source: DE441}
Center-site name: Mauna Kea
*******************************************************************************
Start time      : A.D. 2018-Aug-28 04:50:00.0000 UT      
Stop  time      : A.D. 2018-Aug-28 15:56:00.0000 UT      
Step-size       : 1 minutes
*******************************************************************************
Target pole/equ : undefined
Target radii    : undefined                                                    
Center geodetic : 204.5278, 19.8260847, 4.21024   {E-lon(deg),Lat(deg),Alt(km)}
Center cylindric: 204.5278, 6006.35451, 2151.0229 {E-lon(deg),Dxy(km),Dz(km)}
Center pole/equ : ITRF93                          {East-longitude positive}
Center radii    : 6378.137, 6378.137, 6356.752 km {Equator_a, b, pole_c}       
Target primary  : Sun
Vis. interferer : MOON (R_eq= 1737.400) km        {source: DE441}
Rel. light bend : Sun                             {source: DE441}
Rel. lght bnd GM: 1.3271E+11 km^3/s^2                                          
Small-body perts: Yes                             {source: SB441-N16}
Atmos refraction: NO (AIRLESS)
RA format       : HMS
Time format     : CAL 
Calendar mode   : Mixed Julian/Gregorian
RTS-only print  : NO       
EOP file        : eop.250321.p250617                                           
EOP coverage    : DATA-BASED 1962-JAN-20 TO 2025-MAR-21. PREDICTS-> 2025-JUN-16
Units conversion: 1 au= 149597870.700 km, c= 299792.458 km/s, 1 day= 86400.0 s 
Table cut-offs 1: Elevation (-90.0deg=NO ),Airmass (>38.000=NO), Daylight (YES)
Table cut-offs 2: Solar elongation (  0.0,180.0=NO ),Local Hour Angle( 0.0=NO )
Table cut-offs 3: RA/DEC angular rate (     0.0=NO )                           
*******************************************************************************
Initial IAU76/J2000 heliocentric ecliptic osculating elements (au, days, deg.):
  EPOCH=  2458433.5 ! 2018-Nov-11.00 (TDB)         Residual RMS= .12444        
   EC= .7474905367293002   QR= 7.612253692784782   TP= 2459819.8104231078      
   OM= 217.7952286585891   W=  255.0338939179157   IN= 90.52400691057457       
  Equivalent ICRF heliocentric cartesian coordinates (au, au/d):
   X= 8.209785034050050E+00  Y= 6.297741083246843E+00  Z= 1.446459094674425E+00
  VX=-3.080259200599625E-03 VY=-2.498125597102637E-05 VZ=-6.110805734701701E-03
Asteroid physical parameters (km, seconds, rotational period in hours):        
   GM= n.a.                RAD= n.a.               ROTPER= n.a.                
   H= 11.                  G= .150                 B-V= n.a.                   
                           ALBEDO= n.a.            STYP= n.a.                  
*******************************************************************************
 Date__(UT)__HR:MN     R.A._________(ICRF)_________DEC
******************************************************
$$SOE
 2018-Aug-28 15:05 Am  02 46 36.422510 +11 37 30.81694
 2018-Aug-28 15:06 Am  02 46 36.418489 +11 37 30.69672
 2018-Aug-28 15:07 Am  02 46 36.414469 +11 37 30.57649
 2018-Aug-28 15:08 Am  02 46 36.410449 +11 37 30.45627
 2018-Aug-28 15:09 Am  02 46 36.406428 +11 37 30.33603
 2018-Aug-28 15:10 Am  02 46 36.402408 +11 37 30.21580
 2018-Aug-28 15:11 Am  02 46 36.398387 +11 37 30.09555
 2018-Aug-28 15:12 Am  02 46 36.394366 +11 37 29.97531
 2018-Aug-28 15:13 Am  02 46 36.390346 +11 37 29.85506
 2018-Aug-28 15:14 Am  02 46 36.386325 +11 37 29.73481
 2018-Aug-28 15:15 Am  02 46 36.382304 +11 37 29.61455
 2018-Aug-28 15:16 Am  02 46 36.378283 +11 37 29.49429
 2018-Aug-28 15:17 Nm  02 46 36.374263 +11 37 29.37402
 2018-Aug-28 15:18 Nm  02 46 36.370242 +11 37 29.25375
 2018-Aug-28 15:19 Nm  02 46 36.366221 +11 37 29.13348
 2018-Aug-28 15:20 Nm  02 46 36.362200 +11 37 29.01320
 2018-Aug-28 15:21 Nm  02 46 36.358179 +11 37 28.89292
 2018-Aug-28 15:22 Nm  02 46 36.354158 +11 37 28.77263
 2018-Aug-28 15:23 Nm  02 46 36.350137 +11 37 28.65234
 2018-Aug-28 15:24 Nm  02 46 36.346116 +11 37 28.53205
 2018-Aug-28 15:25 Nm  02 46 36.342096 +11 37 28.41175
 2018-Aug-28 15:26 Nm  02 46 36.338075 +11 37 28.29144
 2018-Aug-28 15:27 Nm  02 46 36.334054 +11 37 28.17114
 2018-Aug-28 15:28 Nm  02 46 36.330033 +11 37 28.05083
 2018-Aug-28 15:29 Nm  02 46 36.326012 +11 37 27.93051
 2018-Aug-28 15:30 Nm  02 46 36.321992 +11 37 27.81019
 2018-Aug-28 15:31 Nm  02 46 36.317971 +11 37 27.68987
 2018-Aug-28 15:32 Nm  02 46 36.313950 +11 37 27.56954
 2018-Aug-28 15:33 Nm  02 46 36.309930 +11 37 27.44921
 2018-Aug-28 15:34 Nm  02 46 36.305909 +11 37 27.32888
 2018-Aug-28 15:35 Nm  02 46 36.301889 +11 37 27.20854
 2018-Aug-28 15:36 Nm  02 46 36.297868 +11 37 27.08819
 2018-Aug-28 15:37 Nm  02 46 36.293848 +11 37 26.96785
 2018-Aug-28 15:38 Nm  02 46 36.289827 +11 37 26.84750
 2018-Aug-28 15:39 Nm  02 46 36.285807 +11 37 26.72714
 2018-Aug-28 15:40 Nm  02 46 36.281787 +11 37 26.60678
 2018-Aug-28 15:41 Nm  02 46 36.277767 +11 37 26.48642
 2018-Aug-28 15:42 Nm  02 46 36.273747 +11 37 26.36605
 2018-Aug-28 15:43 Nm  02 46 36.269727 +11 37 26.24568
 2018-Aug-28 15:44 Cm  02 46 36.265707 +11 37 26.12530
 2018-Aug-28 15:45 Cm  02 46 36.261688 +11 37 26.00492
 2018-Aug-28 15:46 Cm  02 46 36.257668 +11 37 25.88454
 2018-Aug-28 15:47 Cm  02 46 36.253649 +11 37 25.76415
 2018-Aug-28 15:48 Cm  02 46 36.249629 +11 37 25.64376
 2018-Aug-28 15:49 Cm  02 46 36.245610 +11 37 25.52336
 2018-Aug-28 15:50 Cm  02 46 36.241591 +11 37 25.40296
 2018-Aug-28 15:51 Cm  02 46 36.237572 +11 37 25.28256
 2018-Aug-28 15:52 Cm  02 46 36.233553 +11 37 25.16215
 2018-Aug-28 15:53 Cm  02 46 36.229534 +11 37 25.04174
 2018-Aug-28 15:54 Cm  02 46 36.225516 +11 37 24.92133
 2018-Aug-28 15:55 Cm  02 46 36.221497 +11 37 24.80091
 2018-Aug-28 15:56 Cm  02 46 36.217479 +11 37 24.68048
